OBJECT_NAME,OBJECT_ID,EPOCH,MEAN_MOTION,ECCENTRICITY,INCLINATION,RA_OF_ASC_NODE,ARG_OF_PERICENTER,MEAN_ANOMALY,EPHEMERIS_TYPE,CLASSIFICATION_TYPE,NORAD_CAT_ID,ELEMENT_SET_NO,REV_AT_EPOCH,BSTAR,MEAN_MOTION_DOT,MEAN_MOTION_DDOT
IRIDIUM 33 DEB,1997-051FU,2026-06-12T18:44:02.270112,14.65973587,.002265,86.2940,284.4216,268.8699,90.9919,0,U,34376,999,90671,.1703E-2,.9384E-4,0
IRIDIUM 33 DEB,1997-051GB,2026-06-12T19:32:00.284352,15.07669990,.000766,86.3814,287.1017,168.6201,320.0279,0,U,34486,999,91719,.25085E-2,.38437E-3,0
IRIDIUM 33 DEB,1997-051GC,2026-06-11T15:33:55.731744,14.43483496,.00288064,86.3420,294.4832,250.6252,124.1920,0,U,34487,999,90858,.14966746E-3,.528E-5,0
IRIDIUM 33 DEB,1997-051GH,2026-06-12T00:41:26.153952,14.29219734,.0178434,86.4699,261.1149,15.0420,107.1286,0,U,34492,999,87645,.12394134E-2,.3758E-4,0
IRIDIUM 33 DEB,1997-051GN,2026-06-12T06:09:50.360832,14.28087524,.00812754,86.2778,334.8359,112.7040,63.7013,0,U,34497,999,89473,.61828196E-3,.1611E-4,0
IRIDIUM 33 DEB,1997-051GZ,2026-06-12T00:23:17.923488,14.39677876,.00620494,86.3712,25.6758,299.4657,60.0360,0,U,34508,999,89916,.62995513E-3,.2034E-4,0
IRIDIUM 33 DEB,1997-051HN,2026-06-12T20:37:59.503008,14.65741457,.0003724,86.3773,310.2076,36.4561,323.6905,0,U,34521,999,91138,.11212E-2,.6128E-4,0
IRIDIUM 33 DEB,1997-051HS,2026-06-12T05:41:04.645248,14.43366494,.00038894,86.3722,329.3650,182.7141,354.8223,0,U,34525,999,90705,.29440977E-3,.1012E-4,0
IRIDIUM 33 DEB,1997-051HW,2026-06-11T16:40:34.498272,14.40849976,.00040273,86.3628,318.2763,352.4796,7.6343,0,U,34529,999,90747,.18603614E-3,.616E-5,0
IRIDIUM 33 DEB,1997-051JF,2026-06-12T19:46:08.371200,14.43680329,.0036238,86.2752,285.7256,83.6993,44.7078,0,U,34538,999,90382,.58532E-3,.2022E-4,0
IRIDIUM 33 DEB,1997-051JH,2026-06-12T04:16:27.780384,14.79192527,.00124534,86.3105,224.3622,250.5592,163.0284,0,U,34540,999,91700,.11213259E-2,.8356E-4,0
IRIDIUM 33 DEB,1997-051JZ,2026-06-10T09:05:14.851104,14.14678955,.01775469,86.3966,209.2454,92.5585,269.5938,0,U,34648,999,87498,.24953514E-2,.5607E-4,0
IRIDIUM 33 DEB,1997-051KC,2026-06-11T16:49:31.980576,14.28433597,.01352585,86.2761,63.3303,343.0070,16.6613,0,U,34651,999,88477,.20325156E-2,.5626E-4,0
IRIDIUM 33 DEB,1997-051KD,2026-06-12T00:33:53.152704,14.63651091,.00285603,86.3296,259.1563,42.0154,81.6626,0,U,34652,999,91134,.55690208E-3,.2934E-4,0
IRIDIUM 33 DEB,1997-051KM,2026-06-11T16:10:11.258688,14.55873003,.00122543,86.3768,318.3185,120.5034,8.0310,0,U,34690,999,90726,.80673575E-3,.3562E-4,0
IRIDIUM 33 DEB,1997-051KT,2026-06-11T15:50:14.790624,14.77068888,.00566572,86.1782,302.4170,260.3805,116.5990,0,U,34696,999,89334,.34519248E-2,.25102E-3,0
IRIDIUM 33 DEB,1997-051LJ,2026-06-12T04:57:37.602144,14.40955140,.00155145,86.3379,314.8781,348.1735,189.3213,0,U,34765,999,90226,.30970127E-3,.1015E-4,0
IRIDIUM 33 DEB,1997-051MH,2026-06-12T05:10:44.351040,14.53531533,.00184622,86.3924,332.7228,201.1629,218.9228,0,U,34833,999,90350,.64744097E-3,.2727E-4,0
IRIDIUM 33 DEB,1997-051MQ,2026-06-10T22:54:38.996064,14.80066562,.00130737,86.3114,231.2668,282.8947,255.7733,0,U,34870,999,91573,.86889169E-3,.6616E-4,0
IRIDIUM 33 DEB,1997-051MY,2026-06-10T23:46:56.421120,14.68056073,.00231339,86.3287,245.7013,323.6914,216.3677,0,U,34896,999,90262,.53644438E-3,.3112E-4,0
IRIDIUM 33 DEB,1997-051NF,2026-06-12T01:22:40.559232,14.62274685,.00702891,86.1311,283.6065,42.1286,12.6995,0,U,34926,999,89100,.19389564E-2,.10159E-3,0
IRIDIUM 33 DEB,1997-051NR,2026-06-12T05:51:35.567424,14.42790523,.0020715,86.3694,339.4160,351.0840,185.2606,0,U,34985,999,89791,.44462586E-3,.1505E-4,0
IRIDIUM 33 DEB,1997-051NX,2026-06-09T02:23:53.263392,14.48442164,.00076707,86.3218,291.0652,199.0601,161.0317,0,U,35051,999,89577,.45058083E-3,.1708E-4,0
IRIDIUM 33 DEB,1997-051NY,2026-06-12T02:52:57.033984,14.38721014,.00107637,86.3294,302.7163,197.3222,162.7611,0,U,35052,999,89883,.14173247E-3,.455E-5,0
IRIDIUM 33 DEB,1997-051PF,2026-06-12T04:19:22.031904,15.28890411,.00294211,86.2213,323.2160,244.0325,115.7891,0,U,35080,999,72416,.11712243E-1,.347369E-2,0
IRIDIUM 33 DEB,1997-051PM,2026-06-09T06:09:28.655424,14.45942033,.0013685,86.3875,346.5345,272.7660,87.1975,0,U,35297,999,73005,.44362E-3,.1599E-4,0
IRIDIUM 33 DEB,1997-051PP,2026-06-11T04:19:27.457824,14.42344663,.00539592,86.2849,314.5400,225.1270,314.6656,0,U,35299,999,88930,.95655867E-3,.3234E-4,0
IRIDIUM 33 DEB,1997-051QA,2026-06-12T03:01:59.473920,14.50647255,.00124666,86.3533,306.2223,210.5659,149.4821,0,U,35480,999,89660,.46076351E-3,.183E-4,0
IRIDIUM 33 DEB,1997-051QE,2026-06-11T00:13:17.897952,15.15602150,.0015187,86.3434,267.0726,186.7258,173.3781,0,U,35484,999,64731,.24530406E-2,.46959E-3,0
IRIDIUM 33 DEB,1997-051QJ,2026-06-10T10:17:38.119488,14.87047304,.00276252,86.3253,217.7425,121.1357,239.2583,0,U,35488,999,90933,.9427077E-3,.8538E-4,0
