    "l2": "2 34376  86.2940 284.4216 0022650 268.8699  90.9919 14.65973587906719",
    "l2": "2 34486  86.3814 287.1017 0007660 168.6201 320.0279 15.07669990917198",
    "l2": "2 34487  86.3420 294.4832 0028806 250.6252 124.1920 14.43483496908584",
    "l2": "2 34492  86.4699 261.1149 0178434  15.0420 107.1286 14.29219734876456",
    "l2": "2 34497  86.2778 334.8359 0081275 112.7040  63.7013 14.28087524894732",
    "l2": "2 34508  86.3712  25.6758 0062049 299.4657  60.0360 14.39677876899161",
    "l2": "2 34521  86.3773 310.2076 0003724  36.4561 323.6905 14.65741457911385",
    "l2": "2 34525  86.3722 329.3650 0003889 182.7141 354.8223 14.43366494907051",
    "l2": "2 34529  86.3628 318.2763 0004027 352.4796   7.6343 14.40849976907479",
    "l2": "2 34538  86.2752 285.7256 0036238  83.6993  44.7078 14.43680329903822",
    "l2": "2 34540  86.3105 224.3622 0012453 250.5592 163.0284 14.79192527917003",
    "l2": "2 34648  86.3966 209.2454 0177546  92.5585 269.5938 14.14678955874983",
    "l2": "2 34651  86.2761  63.3303 0135258 343.0070  16.6613 14.28433597884773",
    "l2": "2 34652  86.3296 259.1563 0028560  42.0154  81.6626 14.63651091911347",
    "l2": "2 34690  86.3768 318.3185 0012254 120.5034   8.0310 14.55873003907262",
    "l2": "2 34696  86.1782 302.4170 0056657 260.3805 116.5990 14.77068888893347",
    "l2": "2 34765  86.3379 314.8781 0015514 348.1735 189.3213 14.40955140902261",
    "l2": "2 34833  86.3924 332.7228 0018462 201.1629 218.9228 14.53531533903506",
    "l2": "2 34870  86.3114 231.2668 0013073 282.8947 255.7733 14.80066562915734",
    "l2": "2 34896  86.3287 245.7013 0023133 323.6914 216.3677 14.68056073902629",
    "l2": "2 34926  86.1311 283.6065 0070289  42.1286  12.6995 14.62274685891000",
    "l2": "2 34985  86.3694 339.4160 0020715 351.0840 185.2606 14.42790523897918",
    "l2": "2 35051  86.3218 291.0652 0007670 199.0601 161.0317 14.48442164895778",
    "l2": "2 35052  86.3294 302.7163 0010763 197.3222 162.7611 14.38721014898835",
    "l2": "2 35080  86.2213 323.2160 0029421 244.0325 115.7891 15.28890411724166",
    "l2": "2 35297  86.3875 346.5345 0013685 272.7660  87.1975 14.45942033730055",
    "l2": "2 35299  86.2849 314.5400 0053959 225.1270 314.6656 14.42344663889300",
    "l2": "2 35480  86.3533 306.2223 0012466 210.5659 149.4821 14.50647255896602",
    "l2": "2 35484  86.3434 267.0726 0015187 186.7258 173.3781 15.15602150647310",
    "l2": "2 35488  86.3253 217.7425 0027625 121.1357 239.2583 14.87047304909331",
